1 56963U 23084AH  26089.46429777  .00058765  00000-0  91270-3 0  9990
2 56963  97.5783 230.7292 0004521 214.7266 145.3692 15.53764242155724
1 56963U 23084AH  26089.65750273  .00060941  00000-0  94554-3 0  9996
2 56963  97.5782 230.9338 0004468 214.2267 145.8699 15.53783506155751
1 56963U 23084AH  26089.91510466  .00062183  00000-0  96340-3 0  9998
2 56963  97.5783 231.2061 0004459 214.1356 145.9611 15.53818399155795
1 56963U 23084AH  26090.17270145  .00054557  00000-0  84542-3 0  9992
2 56963  97.5785 231.4782 0004516 213.1908 146.9062 15.53845427155833
1 56963U 23084AH  26090.23709999  .00056156  00000-0  86971-3 0  9998
2 56963  97.5785 231.5463 0004528 212.8681 147.2291 15.53853864155840
1 56963U 23084AH  26090.49469081  .00053858  00000-0  83354-3 0  9999
2 56963  97.5786 231.8190 0004527 212.1678 147.9299 15.53883396155881
1 56963U 23084AH  26090.62348450  .00057913  00000-0  89533-3 0  9991
2 56963  97.5786 231.9553 0004494 212.0549 148.0432 15.53895993155904
1 56963U 23084AH  26090.88106843  .00058729  00000-0  90682-3 0  9990
2 56963  97.5786 232.2277 0004450 211.8244 148.2741 15.53926599155948
1 56963U 23084AH  26090.94546352  .00060759  00000-0  93761-3 0  9997
2 56963  97.5786 232.2957 0004467 211.6079 148.4906 15.53934639155955
1 58288U 23174AJ  26059.15724438  .00017930  00000-0  60891-3 0  9991
2 58288  97.3881 135.1926 0002112  16.7793 343.3518 15.30545408128053
1 58288U 23174AJ  26059.28800087  .00016784  00000-0  57016-3 0  9991
2 58288  97.3880 135.3227 0002112  16.3840 343.7469 15.30548754128075
1 58288U 23174AJ  26059.54951297  .00016730  00000-0  56821-3 0  9994
2 58288  97.3880 135.5829 0002088  15.4570 344.6734 15.30557306128110
1 58288U 23174AJ  26059.87640071  .00017288  00000-0  58680-3 0  9999
2 58288  97.3880 135.9081 0002069  14.7347 345.3954 15.30569535128161
1 58288U 23174AJ  26059.94177785  .00017277  00000-0  58639-3 0  9996
2 58288  97.3879 135.9731 0002058  14.7296 345.4005 15.30571952128177
1 58288U 23174AJ  26060.20328552  .00017780  00000-0  60316-3 0  9991
2 58288  97.3879 136.2334 0002048  13.9070 346.2227 15.30582652128219
1 58288U 23174AJ  26060.26866206  .00018287  00000-0  62019-3 0  9995
2 58288  97.3879 136.2984 0002044  13.7345 346.3951 15.30585676128224
1 58288U 23174AJ  26060.53016784  .00019350  00000-0  65578-3 0  9998
2 58288  97.3879 136.5587 0002048  12.4712 347.6579 15.30595885128261
1 58288U 23174AJ  26060.85704716  .00020252  00000-0  68585-3 0  9996
2 58288  97.3877 136.8840 0002026  11.2509 348.8777 15.30610091128317
1 58288U 23174AJ  26060.98779821  .00019041  00000-0  64501-3 0  9997
2 58288  97.3877 137.0141 0002012  10.8451 349.2833 15.30613717128338
1 58288U 23174AJ  26061.18392387  .00018578  00000-0  62931-3 0  9997
2 58288  97.3876 137.2094 0001991  10.0873 350.0407 15.30621431128363
1 58288U 23174AJ  26061.51079796  .00019340  00000-0  65469-3 0  9997
2 58288  97.3875 137.5347 0001975   8.9247 351.2029 15.30634176128418
1 58288U 23174AJ  26061.64154707  .00018617  00000-0  63029-3 0  9993
2 58288  97.3875 137.6648 0001975   8.2258 351.9015 15.30638213128438
1 58288U 23174AJ  26061.83766963  .00019417  00000-0  65703-3 0  9997
2 58288  97.3873 137.8599 0001958   7.1703 352.9565 15.30646581128468
1 58288U 23174AJ  26061.96841756  .00018082  00000-0  61208-3 0  9998
2 58288  97.3873 137.9901 0001933   6.3154 353.8111 15.30649873128486
1 58288U 23174AJ  26062.22991193  .00018864  00000-0  63814-3 0  9992
2 58288  97.3871 138.2501 0001909   4.8303 355.2956 15.30661034128527
1 58288U 23174AJ  26062.49140471  .00019597  00000-0  66256-3 0  9993
2 58288  97.3871 138.5107 0001896   3.6881 356.4373 15.30671141128565
1 58288U 23174AJ  26062.68752302  .00021211  00000-0  71656-3 0  9992
2 58288  97.3871 138.7060 0001891   2.3989 357.7260 15.30680929128591
1 58288U 23174AJ  26062.88364012  .00022430  00000-0  75726-3 0  9997
2 58288  97.3870 138.9010 0001853   2.1276 357.9972 15.30690306128628
1 58288U 23174AJ  26062.94901241  .00024548  00000-0  82821-3 0  9991
2 58288  97.3869 138.9662 0001836   2.3027 357.8222 15.30693161128636
1 58288U 23174AJ  26063.21049920  .00025929  00000-0  87409-3 0  9990
2 58288  97.3868 139.2266 0001821   1.1195 359.0050 15.30707934128677
1 58288U 23174AJ  26063.53735463  .00024673  00000-0  83164-3 0  9998
2 58288  97.3867 139.5516 0001757 359.4340   0.6899 15.30723208128724
1 58288U 23174AJ  26063.60272534  .00024575  00000-0  82827-3 0  9997
2 58288  97.3867 139.6167 0001747 359.1514   0.9724 15.30726766128739
1 58288U 23174AJ  26063.86420758  .00020252  00000-0  68325-3 0  9993
2 58288  97.3866 139.8771 0001721 359.3408   0.7830 15.30733856128775
1 58288U 23174AJ  26064.19105756  .00020531  00000-0  69231-3 0  9995
2 58288  97.3863 140.2025 0001768 357.3253   2.7979 15.30748043128823
1 58288U 23174AJ  26064.32179666  .00018858  00000-0  63617-3 0  9992
2 58288  97.3863 140.3325 0001750 356.1252   3.9976 15.30752240128840
1 58288U 23174AJ  26064.64864309  .00019495  00000-0  65724-3 0  9991
2 58288  97.3864 140.6578 0001742 354.5692   5.5530 15.30764831128893
1 58288U 23174AJ  26064.77938096  .00019502  00000-0  65738-3 0  9994
2 58288  97.3862 140.7879 0001755 353.6489   6.4729 15.30769824128914
1 58288U 23174AJ  26064.84474975  .00019628  00000-0  66156-3 0  9997
2 58288  97.3862 140.8530 0001752 353.3524   6.7694 15.30772330128924
1 58288U 23174AJ  26064.97548672  .00017964  00000-0  60576-3 0  9998
2 58288  97.3861 140.9832 0001727 352.8033   7.3183 15.30775552128941
1 58288U 23174AJ  26065.30232786  .00017187  00000-0  57950-3 0  9991
2 58288  97.3860 141.3083 0001730 351.2317   8.8894 15.30787242128994
1 58288U 23174AJ  26065.62916661  .00020383  00000-0  68620-3 0  9995
2 58288  97.3860 141.6337 0001724 349.7439  10.3767 15.30802386129040
1 58288U 23174AJ  26065.89063558  .00021176  00000-0  71249-3 0  9994
2 58288  97.3858 141.8940 0001675 348.4776  11.6426 15.30812793129087
1 58288U 23174AJ  26066.21746868  .00022543  00000-0  75781-3 0  9997
2 58288  97.3857 142.2193 0001649 346.8871  13.2326 15.30828106129138
1 58288U 23174AJ  26066.28283481  .00023308  00000-0  78331-3 0  9995
2 58288  97.3856 142.2844 0001643 346.1860  13.9336 15.30831049129144
1 58288U 23174AJ  26066.54429823  .00025403  00000-0  85287-3 0  9992
2 58288  97.3856 142.5447 0001602 344.0988  16.0203 15.30845006129188
1 58288U 23174AJ  26066.60966402  .00024132  00000-0  81043-3 0  9992
2 58288  97.3856 142.6097 0001595 344.1263  15.9928 15.30847187129193
1 58288U 23174AJ  26066.93648964  .00026033  00000-0  87340-3 0  9996
2 58288  97.3854 142.9352 0001571 344.4976  15.6217 15.30863884129242
1 58288U 23174AJ  26067.00185438  .00025984  00000-0  87168-3 0  9999
2 58288  97.3853 143.0003 0001583 344.1049  16.0142 15.30867046129254
1 58288U 23174AJ  26067.19794756  .00025407  00000-0  85216-3 0  9990
2 58288  97.3853 143.1955 0001597 343.4875  16.6314 15.30877538129282
1 58288U 23174AJ  26067.52476656  .00024209  00000-0  81184-3 0  9992
2 58288  97.3853 143.5207 0001562 340.0338  20.0842 15.30893401129333
1 58288U 23174AJ  26067.65549362  .00022754  00000-0  76322-3 0  9992
2 58288  97.3853 143.6508 0001542 339.3803  20.7376 15.30898784129354
1 58288U 23174AJ  26067.98230825  .00021609  00000-0  72474-3 0  9991
2 58288  97.3851 143.9763 0001549 337.4942  22.6231 15.30912211129407
1 58288U 23174AJ  26068.50520622  .00018478  00000-0  61995-3 0  9993
2 58288  97.3851 144.4967 0001505 334.3114  25.8052 15.30932354129482
1 58288U 23174AJ  26068.63592993  .00017195  00000-0  57713-3 0  9995
2 58288  97.3851 144.6269 0001504 333.1139  27.0024 15.30936520129507
1 58288U 23174AJ  26068.83201417  .00019269  00000-0  64608-3 0  9990
2 58288  97.3851 144.8222 0001511 333.3905  26.7259 15.30945179129538
1 58288U 23174AJ  26068.96273650  .00019777  00000-0  66288-3 0  9992
2 58288  97.3851 144.9524 0001502 332.6589  27.4572 15.30950809129558
1 58288U 23174AJ  26069.22417946  .00020600  00000-0  69002-3 0  9994
2 58288  97.3851 145.2127 0001494 330.5322  29.5835 15.30962952129594
1 58288U 23174AJ  26069.28953983  .00020781  00000-0  69599-3 0  9997
2 58288  97.3851 145.2778 0001493 329.8535  30.2620 15.30965793129601
1 58288U 23174AJ  26069.55098120  .00019188  00000-0  64281-3 0  9992
2 58288  97.3851 145.5381 0001485 328.3413  31.7738 15.30973540129643
1 58288U 23174AJ  26069.87777994  .00018789  00000-0  62928-3 0  9992
2 58288  97.3851 145.8635 0001430 327.0130  33.1021 15.30986448129697
1 58288U 23174AJ  26069.94313939  .00018842  00000-0  63099-3 0  9995
2 58288  97.3851 145.9285 0001423 326.8484  33.2668 15.30989028129707
1 58288U 23174AJ  26070.20457560  .00018709  00000-0  62635-3 0  9992
2 58288  97.3851 146.1888 0001435 325.6863  34.4285 15.31000373129740
1 58288U 23174AJ  26070.26993457  .00018085  00000-0  60555-3 0  9994
2 58288  97.3851 146.2539 0001440 325.6093  34.5055 15.31002047129752
1 58288U 23174AJ  26070.53136889  .00018090  00000-0  60552-3 0  9995
2 58288  97.3851 146.5142 0001439 324.1924  35.9220 15.31012080129791
1 58288U 23174AJ  26070.85815918  .00018389  00000-0  61522-3 0  9996
2 58288  97.3851 146.8396 0001417 321.9665  38.1476 15.31026043129846
1 58288U 23174AJ  26070.98887499  .00016627  00000-0  55660-3 0  9992
2 58288  97.3851 146.9697 0001403 321.3791  38.7350 15.31028413129862
1 58288U 23174AJ  26071.18494738  .00016513  00000-0  55267-3 0  9992
2 58288  97.3851 147.1649 0001405 320.2876  39.8262 15.31036265129897
1 58288U 23174AJ  26071.31566185  .00017059  00000-0  57073-3 0  9996
2 58288  97.3851 147.2951 0001401 319.6361  40.4776 15.31041397129914
1 58288U 23174AJ  26071.64244696  .00016932  00000-0  56634-3 0  9993
2 58288  97.3852 147.6205 0001415 316.5641  43.5488 15.31051754129960
1 58288U 23174AJ  26071.70780362  .00017152  00000-0  57359-3 0  9995
2 58288  97.3852 147.6856 0001411 316.1252  43.9877 15.31054313129973
1 58288U 23174AJ  26071.83851684  .00017390  00000-0  58141-3 0  9999
2 58288  97.3851 147.8157 0001410 315.2688  44.8439 15.31058753129998
